*******************************************************************************
Ephemeris / WWW_USER Mon Mar 26 20:00:11 2018 Pasadena, USA      / Horizons    
*******************************************************************************
Target body name: Kerberos (904)                  {source: plu055l_merged}
Center body name: Pluto Barycenter (9)            {source: plu055l_merged}
Center-site name: BODY CENTER
*******************************************************************************
Start time      : A.D. 2000-Jan-01 00:00:00.0000 TDB
Stop  time      : A.D. 2001-Jan-01 00:00:00.0000 TDB
Step-size       : 7200 minutes
*******************************************************************************
Center geodetic : 0.00000000,0.00000000,0.0000000 {E-lon(deg),Lat(deg),Alt(km)}
Center cylindric: 0.00000000,0.00000000,0.0000000 {E-lon(deg),Dxy(km),Dz(km)}
Center radii    : (undefined)                                                  
Output units    : AU-D                                                         
Output type     : GEOMETRIC cartesian states
Output format   : 2 (position and velocity)
Reference frame : ICRF/J2000.0                                                 
Coordinate systm: Ecliptic and Mean Equinox of Reference Epoch                 
*******************************************************************************
JDTDB
   X     Y     Z
   VX    VY    VZ
*******************************************************************************
$$SOE
2451754.500000000 = A.D. 2000-Jul-29 00:00:00.0000 TDB 
  -1.938807624619386E-05  1.893670115928018E-04  3.344810414225673E-04
   5.579040947893402E-05  4.576837590769292E-05 -2.257792661064618E-05
2451759.500000000 = A.D. 2000-Aug-03 00:00:00.0000 TDB 
   2.257403689539990E-04  2.990990304430992E-04  8.990382452077217E-05
   3.402526769440348E-05 -5.509580113975119E-06 -6.695613925706879E-05
2451764.500000000 = A.D. 2000-Aug-08 00:00:00.0000 TDB 
   2.706408860662545E-04  1.433999737274935E-04 -2.347079968402078E-04
  -1.767220299813888E-05 -5.169236459732307E-05 -5.205365755728520E-05
2451769.500000000 = A.D. 2000-Aug-13 00:00:00.0000 TDB 
   7.728417030871274E-05 -1.385297934379449E-04 -3.527772311293099E-04
  -5.366165589504061E-05 -5.225224483396911E-05  8.600443350763214E-06
2451774.500000000 = A.D. 2000-Aug-18 00:00:00.0000 TDB 
  -1.841409424588918E-04 -2.996712021122689E-04 -1.621530840969936E-04
  -4.271567334282602E-05 -7.361434470541784E-06  6.134869869332833E-05
2451779.500000000 = A.D. 2000-Aug-23 00:00:00.0000 TDB 
  -2.843706845519328E-04 -1.987267640600521E-04  1.700853348377970E-04
   5.732048768461225E-06  4.420857124036398E-05  6.060255364279062E-05
2451784.500000000 = A.D. 2000-Aug-28 00:00:00.0000 TDB 
  -1.350820403511687E-04  7.625196103050851E-05  3.526446458621711E-04
   4.945875633915769E-05  5.691631446779348E-05  6.045217396567636E-06
2451789.500000000 = A.D. 2000-Sep-02 00:00:00.0000 TDB 
   1.337051916926533E-04  2.835387725065202E-04  2.229551450604198E-04
   4.957713395226156E-05  1.934498615663803E-05 -5.401650286312129E-05
2451794.500000000 = A.D. 2000-Sep-07 00:00:00.0000 TDB 
   2.836542950848128E-04  2.390804115769159E-04 -1.045135792195519E-04
   5.855478778659994E-06 -3.538634688587333E-05 -6.641425748524235E-05
2451799.500000000 = A.D. 2000-Sep-12 00:00:00.0000 TDB 
   1.831600552434930E-04 -1.682604853127202E-05 -3.403662576777010E-04
  -4.264196586794160E-05 -5.838613844751836E-05 -2.008281001306180E-05
2451804.500000000 = A.D. 2000-Sep-17 00:00:00.0000 TDB 
  -7.847632830923798E-05 -2.582828369904979E-04 -2.774413377886582E-04
  -5.351263413064739E-05 -3.021462927402672E-05  4.343219162482750E-05
2451809.500000000 = A.D. 2000-Sep-22 00:00:00.0000 TDB 
  -2.713488222463124E-04 -2.741138475448810E-04  2.750799357165528E-05
  -1.757199921327102E-05  2.447441939467175E-05  6.911369378514995E-05
2451814.500000000 = A.D. 2000-Sep-27 00:00:00.0000 TDB 
  -2.266527702909759E-04 -4.997586498744051E-05  3.084201240904980E-04
   3.380206877890448E-05  5.785426069392393E-05  3.439197895256135E-05
2451819.500000000 = A.D. 2000-Oct-02 00:00:00.0000 TDB 
   1.789976345521418E-05  2.178188645420127E-04  3.168389632114897E-04
   5.575656665420246E-05  4.034181298950781E-05 -3.111834447243268E-05
2451824.500000000 = A.D. 2000-Oct-07 00:00:00.0000 TDB 
   2.463184393717164E-04  2.923893391566005E-04  4.463784810290699E-05
   2.798336348533588E-05 -1.327872239698783E-05 -6.911912268717749E-05
2451829.500000000 = A.D. 2000-Oct-12 00:00:00.0000 TDB 
   2.563617820399773E-04  1.075198038908537E-04 -2.675722083251358E-04
  -2.427810035454238E-05 -5.487044399141614E-05 -4.597804323751529E-05
2451834.500000000 = A.D. 2000-Oct-17 00:00:00.0000 TDB 
   4.041725667037652E-05 -1.722507469476188E-04 -3.442108737432816E-04
  -5.500730899651076E-05 -4.817660118682746E-05  1.732432537552854E-05
2451839.500000000 = A.D. 2000-Oct-22 00:00:00.0000 TDB 
  -2.112665704652483E-04 -3.018877666326210E-04 -1.200006335474329E-04
  -3.729190763859709E-05  7.048401052432159E-07  6.501676234802035E-05
2451844.500000000 = A.D. 2000-Oct-27 00:00:00.0000 TDB 
  -2.781950590027009E-04 -1.676272403791746E-04  2.090600182278740E-04
   1.300467863672619E-05  4.896422380472596E-05  5.590555096892484E-05
2451849.500000000 = A.D. 2000-Nov-01 00:00:00.0000 TDB 
  -1.010130303701807E-04  1.132080964752124E-04  3.539523166862467E-04
   5.237664524153355E-05  5.457102644514781E-05 -2.592763199960434E-06
2451854.500000000 = A.D. 2000-Nov-06 00:00:00.0000 TDB 
   1.655711499169116E-04  2.938826818107081E-04  1.856982242474207E-04
   4.557399589131308E-05  1.200486935554821E-05 -5.892627617560544E-05
2451859.500000000 = A.D. 2000-Nov-11 00:00:00.0000 TDB 
   2.849775782016472E-04  2.134083220637380E-04 -1.475520331150183E-04
  -1.657835203289547E-06 -4.128632704861768E-05 -6.312883358632748E-05
2451864.500000000 = A.D. 2000-Nov-16 00:00:00.0000 TDB 
   1.526568866358543E-04 -5.562125407899833E-05 -3.506397975052497E-04
  -4.722120790472173E-05 -5.775367831281401E-05 -1.135274538438568E-05
2451869.500000000 = A.D. 2000-Nov-21 00:00:00.0000 TDB 
  -1.140702115670925E-04 -2.762974246725105E-04 -2.460776530877644E-04
  -5.120466533871454E-05 -2.372546381824031E-05  4.986726352621917E-05
2451874.500000000 = A.D. 2000-Nov-26 00:00:00.0000 TDB 
  -2.810615817125948E-04 -2.555784962129989E-04  7.339267530902572E-05
  -1.048725691705999E-05  3.104708732273693E-05  6.762313180788176E-05
2451879.500000000 = A.D. 2000-Dec-01 00:00:00.0000 TDB 
  -2.022728785281543E-04 -1.148019232371547E-05  3.285878026892772E-04
   3.963574654447399E-05  5.860566845415237E-05  2.575205012520063E-05
2451884.500000000 = A.D. 2000-Dec-06 00:00:00.0000 TDB 
   5.487403916249616E-05  2.424168033928175E-04  2.936293626908864E-04
   5.498484255467031E-05  3.455146989660997E-05 -3.904705000163915E-05
2451889.500000000 = A.D. 2000-Dec-11 00:00:00.0000 TDB 
   2.629018477473872E-04  2.809978143635512E-04 -1.510936349789315E-06
   2.168068832802389E-05 -2.028589847019628E-05 -6.965009284338731E-05
2451894.500000000 = A.D. 2000-Dec-16 00:00:00.0000 TDB 
   2.380519571648339E-04  7.032425230379125E-05 -2.959511453508603E-04
  -3.046960593096030E-05 -5.682632234173092E-05 -3.865349393119670E-05
2451899.500000000 = A.D. 2000-Dec-21 00:00:00.0000 TDB 
   3.100385020736362E-06 -2.026535182120398E-04 -3.296833392296649E-04
  -5.560370488531697E-05 -4.330512369219686E-05  2.610050146792700E-05
2451904.500000000 = A.D. 2000-Dec-26 00:00:00.0000 TDB 
  -2.345522626915051E-04 -2.985588900273113E-04 -7.535618893407809E-05
  -3.182472323866043E-05  8.231772877304563E-06  6.780271600491732E-05
2451909.500000000 = A.D. 2000-Dec-31 00:00:00.0000 TDB 
  -2.672833596034656E-04 -1.336137561356165E-04  2.449017594697546E-04
   1.970707780005970E-05  5.258925811099151E-05  5.037172806776823E-05
